{"type": "FeatureCollection", "features": [ {"type": "Feature", "properties": {"norad_id": 34014, "name": "COSMOS 2251 DEB", "group": "cosmos-2251-debris", "lat": -19.409925320718255, "lon": 86.91237295027055, "alt_km": 680.5468677742829, "timestamp": "2025-12-22T18:58:53.826206+00:00", "meta": {"OBJECT_NAME": "COSMOS 2251 DEB", "OBJECT_ID": "1993-036GZ", "EPOCH": "2025-12-22T03:43:38.357184", "MEAN_MOTION": 14.73241983, "ECCENTRICITY": 0.00374339, "INCLINATION": 74.0173, "RA_OF_ASC_NODE": 262.3559, "ARG_OF_PERICENTER": 39.3733, "MEAN_ANOMALY": 31.0077, "EPHEMERIS_TYPE": 0, "CLASSIFICATION_TYPE": "U", "NORAD_CAT_ID": 34014, "ELEMENT_SET_NO": 999, "REV_AT_EPOCH": 89442, "BSTAR": 0.0008905225, "MEAN_MOTION_DOT": 5.788e-05, "MEAN_MOTION_DDOT": 0}, "tle": {"line1": "1 34014U 93036GZ  25356.15530506  .00005788  00000+0  89052-3 0  9993", "line2": "2 34014  74.0173 262.3559 0037433  39.3733  31.0077 14.73241983894423"}}, "geometry": {"type": "Point", "coordinates": [86.91237295027055, -19.409925320718255]}}, {"type": "Feature", "properties": {"norad_id": 34015, "name": "COSMOS 2251 DEB", "group": "cosmos-2251-debris", "lat": -29.241687736770757, "lon": -30.548840163645895, "alt_km": 684.2548904756222, "timestamp": "2025-12-22T18:58:53.826216+00:00", "meta": {"OBJECT_NAME": "COSMOS 2251 DEB", "OBJECT_ID": "1993-036HA", "EPOCH": "2025-12-21T15:46:09.424128", "MEAN_MOTION": 14.60357388, "ECCENTRICITY": 0.002092, "INCLINATION": 74.0239, "RA_OF_ASC_NODE": 142.3875, "ARG_OF_PERICENTER": 239.0667, "MEAN_ANOMALY": 132.939, "EPHEMERIS_TYPE": 0, "CLASSIFICATION_TYPE": "U", "NORAD_CAT_ID": 34015, "ELEMENT_SET_NO": 999, "REV_AT_EPOCH": 88661, "BSTAR": 0.001078, "MEAN_MOTION_DOT": 5.203e-05, "MEAN_MOTION_DDOT": 0}, "tle": {"line1": "1 34015U 93036HA  25355.65705352  .00005203  00000+0  10780-2 0  9994", "line2": "2 34015  74.0239 142.3875 0020920 239.0667 132.9390 14.60357388886617"}}, "geometry": {"type": "Point", "coordinates": [-30.548840163645895, -29.241687736770757]}}, {"type": "Feature", "properties": {"norad_id": 34018, "name": "COSMOS 2251 DEB", "group": "cosmos-2251-debris", "lat": 5.250500549555561, "lon": 76.58655557865386, "alt_km": 1001.9755122919196, "timestamp": "2025-12-22T18:58:53.826226+00:00", "meta": {"OBJECT_NAME": "COSMOS 2251 DEB", "OBJECT_ID": "1993-036HD", "EPOCH": "2025-12-22T07:03:26.360640", "MEAN_MOTION": 13.81082359, "ECCENTRICITY": 0.02632375, "INCLINATION": 73.878, "RA_OF_ASC_NODE": 75.9052, "ARG_OF_PERICENTER": 109.9598, "MEAN_ANOMALY": 309.2317, "EPHEMERIS_TYPE": 0, "CLASSIFICATION_TYPE": "U", "NORAD_CAT_ID": 34018, "ELEMENT_SET_NO": 999, "REV_AT_EPOCH": 84789, "BSTAR": 0.00034125501, "MEAN_MOTION_DOT": 4.48e-06, "MEAN_MOTION_DDOT": 0}, "tle": {"line1": "1 34018U 93036HD  25356.29405510  .00000448  00000+0  34126-3 0  9998", "line2": "2 34018  73.8780  75.9052 0263237 109.9598 309.2317 13.81082359847894"}}, "geometry": {"type": "Point", "coordinates": [76.58655557865386, 5.250500549555561]}}, {"type": "Feature", "properties": {"norad_id": 34019, "name": "COSMOS 2251 DEB", "group": "cosmos-2251-debris", "lat": -61.21026760363441, "lon": -116.16053839807061, "alt_km": 748.1018269717661, "timestamp": "2025-12-22T18:58:53.826236+00:00", "meta": {"OBJECT_NAME": "COSMOS 2251 DEB", "OBJECT_ID": "1993-036HE", "EPOCH": "2025-12-22T04:45:46.297728", "MEAN_MOTION": 14.33977679, "ECCENTRICITY": 0.00623441, "INCLINATION": 73.9533, "RA_OF_ASC_NODE": 33.3443, "ARG_OF_PERICENTER": 213.1296, "MEAN_ANOMALY": 215.0123, "EPHEMERIS_TYPE": 0, "CLASSIFICATION_TYPE": "U", "NORAD_CAT_ID": 34019, "ELEMENT_SET_NO": 999, "REV_AT_EPOCH": 87656, "BSTAR": 0.00066975857, "MEAN_MOTION_DOT": 1.884e-05, "MEAN_MOTION_DDOT": 0}, "tle": {"line1": "1 34019U 93036HE  25356.19845252  .00001884  00000+0  66976-3 0  9992", "line2": "2 34019  73.9533  33.3443 0062344 213.1296 215.0123 14.33977679876564"}}, "geometry": {"type": "Point", "coordinates": [-116.16053839807061, -61.21026760363441]}}, {"type": "Feature", "properties": {"norad_id": 34021, "name": "COSMOS 2251 DEB", "group": "cosmos-2251-debris", "lat": -21.963257875541924, "lon": -62.41385211580462, "alt_km": 721.3192229164451, "timestamp": "2025-12-22T18:58:53.826247+00:00", "meta": {"OBJECT_NAME": "COSMOS 2251 DEB", "OBJECT_ID": "1993-036HG", "EPOCH": "2025-12-21T09:11:27.909888", "MEAN_MOTION": 14.4997632, "ECCENTRICITY": 0.00209884, "INCLINATION": 74.036, "RA_OF_ASC_NODE": 113.5998, "ARG_OF_PERICENTER": 256.8538, "MEAN_ANOMALY": 159.7796, "EPHEMERIS_TYPE": 0, "CLASSIFICATION_TYPE": "U", "NORAD_CAT_ID": 34021, "ELEMENT_SET_NO": 999, "REV_AT_EPOCH": 88755, "BSTAR": 0.00036322987, "MEAN_MOTION_DOT": 1.382e-05, "MEAN_MOTION_DDOT": 0}, "tle": {"line1": "1 34021U 93036HG  25355.38296192  .00001382  00000+0  36323-3 0  9994", "line2": "2 34021  74.0360 113.5998 0020988 256.8538 159.7796 14.49976320887554"}}, "geometry": {"type": "Point", "coordinates": [-62.41385211580462, -21.963257875541924]}}, {"type": "Feature", "properties": {"norad_id": 34022, "name": "COSMOS 2251 DEB", "group": "cosmos-2251-debris", "lat": -17.51034048719596, "lon": -112.89964970947204, "alt_km": 751.7395623417797, "timestamp": "2025-12-22T18:58:53.826257+00:00", "meta": {"OBJECT_NAME": "COSMOS 2251 DEB", "OBJECT_ID": "1993-036HH", "EPOCH": "2025-12-22T01:14:00.769056", "MEAN_MOTION": 14.38976268, "ECCENTRICITY": 0.00230028, "INCLINATION": 74.054, "RA_OF_ASC_NODE": 253.6378, "ARG_OF_PERICENTER": 317.0867, "MEAN_ANOMALY": 155.3613, "EPHEMERIS_TYPE": 0, "CLASSIFICATION_TYPE": "U", "NORAD_CAT_ID": 34022, "ELEMENT_SET_NO": 999, "REV_AT_EPOCH": 88329, "BSTAR": 0.00019127637, "MEAN_MOTION_DOT": 5.65e-06, "MEAN_MOTION_DDOT": 0}, "tle": {"line1": "1 34022U 93036HH  25356.05139779  .00000565  00000+0  19128-3 0  9993", "line2": "2 34022  74.0540 253.6378 0023002 317.0867 155.3613 14.38976268883294"}}, "geometry": {"type": "Point", "coordinates": [-112.89964970947204, -17.51034048719596]}}, {"type": "Feature", "properties": {"norad_id": 34023, "name": "COSMOS 2251 DEB", "group": "cosmos-2251-debris", "lat": -39.14028504872086, "lon": -140.33962171947277, "alt_km": 749.4062987120533, "timestamp": "2025-12-22T18:58:53.826267+00:00", "meta": {"OBJECT_NAME": "COSMOS 2251 DEB", "OBJECT_ID": "1993-036HJ", "EPOCH": "2025-12-22T03:12:54.768672", "MEAN_MOTION": 14.40578955, "ECCENTRICITY": 0.00188152, "INCLINATION": 74.0242, "RA_OF_ASC_NODE": 234.3581, "ARG_OF_PERICENTER": 328.6587, "MEAN_ANOMALY": 184.8839, "EPHEMERIS_TYPE": 0, "CLASSIFICATION_TYPE": "U", "NORAD_CAT_ID": 34023, "ELEMENT_SET_NO": 999, "REV_AT_EPOCH": 88349, "BSTAR": 0.00024945527, "MEAN_MOTION_DOT": 7.7e-06, "MEAN_MOTION_DDOT": 0}, "tle": {"line1": "1 34023U 93036HJ  25356.13396723  .00000770  00000+0  24946-3 0  9999", "line2": "2 34023  74.0242 234.3581 0018815 328.6587 184.8839 14.40578955883492"}}, "geometry": {"type": "Point", "coordinates": [-140.33962171947277, -39.14028504872086]}}, {"type": "Feature", "properties": {"norad_id": 34024, "name": "COSMOS 2251 DEB", "group": "cosmos-2251-debris", "lat": 36.47352130508564, "lon": 105.36338664911257, "alt_km": 784.7608837392618, "timestamp": "2025-12-22T18:58:53.826277+00:00", "meta": {"OBJECT_NAME": "COSMOS 2251 DEB", "OBJECT_ID": "1993-036HK", "EPOCH": "2025-12-22T03:20:22.167744", "MEAN_MOTION": 14.35406068, "ECCENTRICITY": 0.00214493, "INCLINATION": 74.0468, "RA_OF_ASC_NODE": 298.7653, "ARG_OF_PERICENTER": 347.4676, "MEAN_ANOMALY": 27.5876, "EPHEMERIS_TYPE": 0, "CLASSIFICATION_TYPE": "U", "NORAD_CAT_ID": 34024, "ELEMENT_SET_NO": 999, "REV_AT_EPOCH": 88159, "BSTAR": 0.00016495955, "MEAN_MOTION_DOT": 4.49e-06, "MEAN_MOTION_DDOT": 0}, "tle": {"line1": "1 34024U 93036HK  25356.13914546  .00000449  00000+0  16496-3 0  9993", "line2": "2 34024  74.0468 298.7653 0021449 347.4676  27.5876 14.35406068881594"}}, "geometry": {"type": "Point", "coordinates": [105.36338664911257, 36.47352130508564]}}, {"type": "Feature", "properties": {"norad_id": 34026, "name": "COSMOS 2251 DEB", "group": "cosmos-2251-debris", "lat": 13.722763128543273, "lon": -35.34892989310099, "alt_km": 1274.4674297517204, "timestamp": "2025-12-22T18:58:53.826287+00:00", "meta": {"OBJECT_NAME": "COSMOS 2251 DEB", "OBJECT_ID": "1993-036HM", "EPOCH": "2025-12-22T04:57:25.488864", "MEAN_MOTION": 13.6532033, "ECCENTRICITY": 0.0349788, "INCLINATION": 73.7668, "RA_OF_ASC_NODE": 321.5428, "ARG_OF_PERICENTER": 190.1115, "MEAN_ANOMALY": 193.5439, "EPHEMERIS_TYPE": 0, "CLASSIFICATION_TYPE": "U", "NORAD_CAT_ID": 34026, "ELEMENT_SET_NO": 999, "REV_AT_EPOCH": 83661, "BSTAR": 0.00042893271, "MEAN_MOTION_DOT": 5.07e-06, "MEAN_MOTION_DDOT": 0}, "tle": {"line1": "1 34026U 93036HM  25356.20654501  .00000507  00000+0  42893-3 0  9990", "line2": "2 34026  73.7668 321.5428 0349788 190.1115 193.5439 13.65320330836610"}}, "geometry": {"type": "Point", "coordinates": [-35.34892989310099, 13.722763128543273]}}, {"type": "Feature", "properties": {"norad_id": 34028, "name": "COSMOS 2251 DEB", "group": "cosmos-2251-debris", "lat": -38.99165107216343, "lon": 165.37662951425006, "alt_km": 1328.6614301193877, "timestamp": "2025-12-22T18:58:53.826298+00:00", "meta": {"OBJECT_NAME": "COSMOS 2251 DEB", "OBJECT_ID": "1993-036HP", "EPOCH": "2025-12-21T22:04:55.758720", "MEAN_MOTION": 13.20630333, "ECCENTRICITY": 0.05435118, "INCLINATION": 73.8836, "RA_OF_ASC_NODE": 333.1756, "ARG_OF_PERICENTER": 109.4454, "MEAN_ANOMALY": 286.9669, "EPHEMERIS_TYPE": 0, "CLASSIFICATION_TYPE": "U", "NORAD_CAT_ID": 34028, "ELEMENT_SET_NO": 999, "REV_AT_EPOCH": 81129, "BSTAR": 0.00047787653, "MEAN_MOTION_DOT": 4.05e-06, "MEAN_MOTION_DDOT": 0}, "tle": {"line1": "1 34028U 93036HP  25355.92008980  .00000405  00000+0  47788-3 0  9999", "line2": "2 34028  73.8836 333.1756 0543511 109.4454 286.9669 13.20630333811299"}}, "geometry": {"type": "Point", "coordinates": [165.37662951425006, -38.99165107216343]}}]}